{"type": "FeatureCollection", "features": [ {"type": "Feature", "properties": {"norad_id": 54234, "name": "NOAA 21 (JPSS-2)", "group": "weather", "lat": 27.971140842919432, "lon": 115.21899653256467, "alt_km": 826.5547534432235, "timestamp": "2025-12-20T07:33:50.443910+00:00", "meta": {"OBJECT_NAME": "NOAA 21 (JPSS-2)", "OBJECT_ID": "2022-150A", "EPOCH": "2025-12-19T20:42:09.018432", "MEAN_MOTION": 14.19526009, "ECCENTRICITY": 0.00019115, "INCLINATION": 98.7471, "RA_OF_ASC_NODE": 290.0822, "ARG_OF_PERICENTER": 23.8946, "MEAN_ANOMALY": 336.2319, "EPHEMERIS_TYPE": 0, "CLASSIFICATION_TYPE": "U", "NORAD_CAT_ID": 54234, "ELEMENT_SET_NO": 999, "REV_AT_EPOCH": 16110, "BSTAR": 4.1646167e-05, "MEAN_MOTION_DOT": 4.4e-07, "MEAN_MOTION_DDOT": 0}, "tle": {"line1": "1 54234U 22150A   25353.86260438  .00000044  00000+0  41646-4 0  9995", "line2": "2 54234  98.7471 290.0822 0001911  23.8946 336.2319 14.19526009161106"}}, "geometry": {"type": "Point", "coordinates": [115.21899653256467, 27.971140842919432]}}, {"type": "Feature", "properties": {"norad_id": 54743, "name": "METEOSAT-12 (MTG-I1)", "group": "weather", "lat": 0.01722239706068857, "lon": -157.7195434062993, "alt_km": 35783.4527757085, "timestamp": "2025-12-20T07:33:50.443934+00:00", "meta": {"OBJECT_NAME": "METEOSAT-12 (MTG-I1)", "OBJECT_ID": "2022-170C", "EPOCH": "2025-12-19T06:24:51.136128", "MEAN_MOTION": 1.00270426, "ECCENTRICITY": 0.0001481, "INCLINATION": 0.6935, "RA_OF_ASC_NODE": 24.6802, "ARG_OF_PERICENTER": 239.4026, "MEAN_ANOMALY": 279.9464, "EPHEMERIS_TYPE": 0, "CLASSIFICATION_TYPE": "U", "NORAD_CAT_ID": 54743, "ELEMENT_SET_NO": 999, "REV_AT_EPOCH": 1117, "BSTAR": 0, "MEAN_MOTION_DOT": 1.7e-07, "MEAN_MOTION_DDOT": 0}, "tle": {"line1": "1 54743U 22170C   25353.26725852  .00000017  00000+0  00000+0 0  9996", "line2": "2 54743   0.6935  24.6802 0001481 239.4026 279.9464  1.00270426 11173"}}, "geometry": {"type": "Point", "coordinates": [-157.7195434062993, 0.01722239706068857]}}, {"type": "Feature", "properties": {"norad_id": 55973, "name": "TIANMU-1 03", "group": "weather", "lat": 33.97708707162441, "lon": -17.720062415051814, "alt_km": 441.50033169821745, "timestamp": "2025-12-20T07:33:50.443946+00:00", "meta": {"OBJECT_NAME": "TIANMU-1 03", "OBJECT_ID": "2023-039A", "EPOCH": "2025-12-19T21:35:05.186976", "MEAN_MOTION": 15.41120795, "ECCENTRICITY": 0.00040941, "INCLINATION": 97.5103, "RA_OF_ASC_NODE": 156.7516, "ARG_OF_PERICENTER": 40.4854, "MEAN_ANOMALY": 319.6696, "EPHEMERIS_TYPE": 0, "CLASSIFICATION_TYPE": "U", "NORAD_CAT_ID": 55973, "ELEMENT_SET_NO": 999, "REV_AT_EPOCH": 15316, "BSTAR": 0.00026286438, "MEAN_MOTION_DOT": 0.00010799, "MEAN_MOTION_DDOT": 0}, "tle": {"line1": "1 55973U 23039A   25353.89936559  .00010799  00000+0  26286-3 0  9990", "line2": "2 55973  97.5103 156.7516 0004094  40.4854 319.6696 15.41120795153160"}}, "geometry": {"type": "Point", "coordinates": [-17.720062415051814, 33.97708707162441]}}, {"type": "Feature", "properties": {"norad_id": 55974, "name": "TIANMU-1 04", "group": "weather", "lat": -82.38018226264492, "lon": -103.78703313069356, "alt_km": 450.95557348624243, "timestamp": "2025-12-20T07:33:50.443957+00:00", "meta": {"OBJECT_NAME": "TIANMU-1 04", "OBJECT_ID": "2023-039B", "EPOCH": "2025-12-19T22:36:42.471936", "MEAN_MOTION": 15.41462598, "ECCENTRICITY": 0.00047079, "INCLINATION": 97.5036, "RA_OF_ASC_NODE": 155.9836, "ARG_OF_PERICENTER": 34.5946, "MEAN_ANOMALY": 325.5606, "EPHEMERIS_TYPE": 0, "CLASSIFICATION_TYPE": "U", "NORAD_CAT_ID": 55974, "ELEMENT_SET_NO": 999, "REV_AT_EPOCH": 15317, "BSTAR": 0.00026356344, "MEAN_MOTION_DOT": 0.00010953, "MEAN_MOTION_DDOT": 0}, "tle": {"line1": "1 55974U 23039B   25353.94215824  .00010953  00000+0  26356-3 0  9992", "line2": "2 55974  97.5036 155.9836 0004707  34.5946 325.5606 15.41462598153177"}}, "geometry": {"type": "Point", "coordinates": [-103.78703313069356, -82.38018226264492]}}, {"type": "Feature", "properties": {"norad_id": 55975, "name": "TIANMU-1 05", "group": "weather", "lat": -68.53423134808664, "lon": 176.45739584329945, "alt_km": 451.89227782179205, "timestamp": "2025-12-20T07:33:50.443971+00:00", "meta": {"OBJECT_NAME": "TIANMU-1 05", "OBJECT_ID": "2023-039C", "EPOCH": "2025-12-19T22:30:59.436288", "MEAN_MOTION": 15.41079612, "ECCENTRICITY": 0.00041448, "INCLINATION": 97.5082, "RA_OF_ASC_NODE": 156.4723, "ARG_OF_PERICENTER": 58.6971, "MEAN_ANOMALY": 301.4681, "EPHEMERIS_TYPE": 0, "CLASSIFICATION_TYPE": "U", "NORAD_CAT_ID": 55975, "ELEMENT_SET_NO": 999, "REV_AT_EPOCH": 15315, "BSTAR": 0.00027241768, "MEAN_MOTION_DOT": 0.0001118, "MEAN_MOTION_DDOT": 0}, "tle": {"line1": "1 55975U 23039C   25353.93818792  .00011180  00000+0  27242-3 0  9993", "line2": "2 55975  97.5082 156.4723 0004144  58.6971 301.4681 15.41079612153155"}}, "geometry": {"type": "Point", "coordinates": [176.45739584329945, -68.53423134808664]}}, {"type": "Feature", "properties": {"norad_id": 55976, "name": "TIANMU-1 06", "group": "weather", "lat": -75.95906510615089, "lon": -54.50321030291646, "alt_km": 451.67326608197527, "timestamp": "2025-12-20T07:33:50.443981+00:00", "meta": {"OBJECT_NAME": "TIANMU-1 06", "OBJECT_ID": "2023-039D", "EPOCH": "2025-12-19T22:39:29.514240", "MEAN_MOTION": 15.41514113, "ECCENTRICITY": 0.00044392, "INCLINATION": 97.5093, "RA_OF_ASC_NODE": 156.9493, "ARG_OF_PERICENTER": 53.0748, "MEAN_ANOMALY": 307.0904, "EPHEMERIS_TYPE": 0, "CLASSIFICATION_TYPE": "U", "NORAD_CAT_ID": 55976, "ELEMENT_SET_NO": 999, "REV_AT_EPOCH": 15317, "BSTAR": 0.00026090252, "MEAN_MOTION_DOT": 0.0001086, "MEAN_MOTION_DDOT": 0}, "tle": {"line1": "1 55976U 23039D   25353.94409160  .00010860  00000+0  26090-3 0  9994", "line2": "2 55976  97.5093 156.9493 0004439  53.0748 307.0904 15.41514113153177"}}, "geometry": {"type": "Point", "coordinates": [-54.50321030291646, -75.95906510615089]}}, {"type": "Feature", "properties": {"norad_id": 56232, "name": "FENGYUN 3G", "group": "weather", "lat": 12.337882119979028, "lon": -161.06489822818355, "alt_km": 409.81135201307643, "timestamp": "2025-12-20T07:33:50.443996+00:00", "meta": {"OBJECT_NAME": "FENGYUN 3G", "OBJECT_ID": "2023-055A", "EPOCH": "2025-12-19T22:14:07.766592", "MEAN_MOTION": 15.54051193, "ECCENTRICITY": 0.00093146, "INCLINATION": 49.9918, "RA_OF_ASC_NODE": 190.3568, "ARG_OF_PERICENTER": 180.8732, "MEAN_ANOMALY": 179.2221, "EPHEMERIS_TYPE": 0, "CLASSIFICATION_TYPE": "U", "NORAD_CAT_ID": 56232, "ELEMENT_SET_NO": 999, "REV_AT_EPOCH": 15214, "BSTAR": 0.0003256242, "MEAN_MOTION_DOT": 0.00021141, "MEAN_MOTION_DDOT": 0}, "tle": {"line1": "1 56232U 23055A   25353.92647878  .00021141  00000+0  32562-3 0  9991", "line2": "2 56232  49.9918 190.3568 0009314 180.8732 179.2221 15.54051193152149"}}, "geometry": {"type": "Point", "coordinates": [-161.06489822818355, 12.337882119979028]}}, {"type": "Feature", "properties": {"norad_id": 57166, "name": "METEOR-M2 3", "group": "weather", "lat": -0.7475162469955975, "lon": -132.39180525269208, "alt_km": 817.2228790592671, "timestamp": "2025-12-20T07:33:50.444007+00:00", "meta": {"OBJECT_NAME": "METEOR-M2 3", "OBJECT_ID": "2023-091A", "EPOCH": "2025-12-19T22:17:12.274656", "MEAN_MOTION": 14.24026894, "ECCENTRICITY": 0.00034996, "INCLINATION": 98.6367, "RA_OF_ASC_NODE": 47.3421, "ARG_OF_PERICENTER": 347.3826, "MEAN_ANOMALY": 12.7265, "EPHEMERIS_TYPE": 0, "CLASSIFICATION_TYPE": "U", "NORAD_CAT_ID": 57166, "ELEMENT_SET_NO": 999, "REV_AT_EPOCH": 12900, "BSTAR": 2.4272361e-05, "MEAN_MOTION_DOT": 1.2e-07, "MEAN_MOTION_DDOT": 0}, "tle": {"line1": "1 57166U 23091A   25353.92861429  .00000012  00000+0  24272-4 0  9992", "line2": "2 57166  98.6367  47.3421 0003499 347.3826  12.7265 14.24026894129000"}}, "geometry": {"type": "Point", "coordinates": [-132.39180525269208, -0.7475162469955975]}}, {"type": "Feature", "properties": {"norad_id": 57399, "name": "TIANMU-1 07", "group": "weather", "lat": -38.01030595833229, "lon": 49.73792893022658, "alt_km": 488.4186467158852, "timestamp": "2025-12-20T07:33:50.444018+00:00", "meta": {"OBJECT_NAME": "TIANMU-1 07", "OBJECT_ID": "2023-101A", "EPOCH": "2025-12-19T22:18:08.921088", "MEAN_MOTION": 15.28167541, "ECCENTRICITY": 0.00053186, "INCLINATION": 97.2868, "RA_OF_ASC_NODE": 43.6208, "ARG_OF_PERICENTER": 63.2607, "MEAN_ANOMALY": 296.9176, "EPHEMERIS_TYPE": 0, "CLASSIFICATION_TYPE": "U", "NORAD_CAT_ID": 57399, "ELEMENT_SET_NO": 999, "REV_AT_EPOCH": 13425, "BSTAR": 0.00018174024, "MEAN_MOTION_DOT": 4.918e-05, "MEAN_MOTION_DDOT": 0}, "tle": {"line1": "1 57399U 23101A   25353.92926992  .00004918  00000+0  18174-3 0  9991", "line2": "2 57399  97.2868  43.6208 0005318  63.2607 296.9176 15.28167541134254"}}, "geometry": {"type": "Point", "coordinates": [49.73792893022658, -38.01030595833229]}}, {"type": "Feature", "properties": {"norad_id": 57400, "name": "TIANMU-1 08", "group": "weather", "lat": 36.42144277355049, "lon": -130.7883168407375, "alt_km": 478.0498821168303, "timestamp": "2025-12-20T07:33:50.444028+00:00", "meta": {"OBJECT_NAME": "TIANMU-1 08", "OBJECT_ID": "2023-101B", "EPOCH": "2025-12-19T23:04:57.670176", "MEAN_MOTION": 15.2815057, "ECCENTRICITY": 0.00072823, "INCLINATION": 97.2857, "RA_OF_ASC_NODE": 43.4494, "ARG_OF_PERICENTER": 63.7283, "MEAN_ANOMALY": 296.4704, "EPHEMERIS_TYPE": 0, "CLASSIFICATION_TYPE": "U", "NORAD_CAT_ID": 57400, "ELEMENT_SET_NO": 999, "REV_AT_EPOCH": 13425, "BSTAR": 0.00019020814, "MEAN_MOTION_DOT": 5.15e-05, "MEAN_MOTION_DDOT": 0}, "tle": {"line1": "1 57400U 23101B   25353.96177859  .00005150  00000+0  19021-3 0  9999", "line2": "2 57400  97.2857  43.4494 0007282  63.7283 296.4704 15.28150570134253"}}, "geometry": {"type": "Point", "coordinates": [-130.7883168407375, 36.42144277355049]}}]}